NORAD_CAT_ID,OBJECT_NAME,OBJECT_TYPE,EPOCH,MEAN_MOTION,ECCENTRICITY,INCLINATION,RA_OF_ASC_NODE,ARG_OF_PERICENTER,MEAN_ANOMALY,BSTAR,MEAN_MOTION_DOT,MEAN_MOTION_DDOT,TLE_LINE0,TLE_LINE1,TLE_LINE2,SEMIMAJOR_AXIS,PERIOD,APOGEE,PERIGEE,DECAYED
54807.0,STARLINK-5410,PAYLOAD,2023-03-19 19:24:52,15.08844595,0.0001306,53.2173,223.4525,93.0805,267.0336,1.6955e-05,-1.8e-07,0.0,0 STARLINK-5410,1 54807U 22175BB  23078.80894550 -.00000018  00000-0  16955-4 0  9990,2 54807  53.2173 223.4525 0001306  93.0805 267.0336 15.08844595 14040,6917.866,95.437,540.635,538.828,0.0
54807.0,STARLINK-5410,PAYLOAD,2023-03-20 12:54:07,15.08839236,0.0001227,53.2182,220.1819,98.6374,261.4757,-7.3954e-05,-1.465e-05,0.0,0 STARLINK-5410,1 54807U 22175BB  23079.53759108 -.00001465  00000-0 -73954-4 0  9990,2 54807  53.2182 220.1819 0001227  98.6374 261.4757 15.08839236 14157,6917.883,95.438,540.597,538.899,0.0
54807.0,STARLINK-5410,PAYLOAD,2023-03-20 16:04:53,15.0884554,0.0001243,53.2182,219.5875,99.204,260.9093,-1.8491e-05,-5.82e-06,0.0,0 STARLINK-5410,1 54807U 22175BB  23079.67006491 -.00000582  00000-0 -18491-4 0  9999,2 54807  53.2182 219.5875 0001243  99.2040 260.9093 15.08845540 14170,6917.863,95.437,540.588,538.869,0.0
54807.0,STARLINK-5410,PAYLOAD,2023-03-20 20:51:02,15.088557,0.0001236,53.2179,218.6954,100.5127,259.6004,-1.3104e-05,-4.97e-06,0.0,0 STARLINK-5410,1 54807U 22175BB  23079.86877728 -.00000497  00000-0 -13104-4 0  9990,2 54807  53.2179 218.6954 0001236 100.5127 259.6004 15.08855700 14208,6917.832,95.437,540.552,538.842,0.0
54807.0,STARLINK-5410,PAYLOAD,2023-03-21 12:44:54,15.08836059,0.0001214,53.2182,215.723,89.6831,270.43,2.1611e-05,5.6e-07,0.0,0 STARLINK-5410,1 54807U 22175BB  23080.53118821  .00000056  00000-0  21611-4 0  9999,2 54807  53.2182 215.7230 0001214  89.6831 270.4300 15.08836059 14309,6917.892,95.438,540.597,538.918,0.0
54807.0,STARLINK-5410,PAYLOAD,2023-03-21 20:41:48,15.08854211,0.0001396,53.2168,214.2319,111.8745,248.2396,9.4461e-05,1.216e-05,0.0,0 STARLINK-5410,1 54807U 22175BB  23080.86237242  .00001216  00000-0  94461-4 0  9996,2 54807  53.2168 214.2319 0001396 111.8745 248.2396 15.08854211 16511,6917.837,95.437,540.668,538.736,0.0
54807.0,STARLINK-5410,PAYLOAD,2023-03-22 01:28:00,15.08823832,7.8e-05,53.2178,213.3435,141.0368,219.068,-0.00021759,-3.747e-05,0.0,0 STARLINK-5410,1 54807U 22175BB  23081.06111706 -.00003747  00000-0 -21759-3 0  9997,2 54807  53.2178 213.3435 0000780 141.0368 219.0680 15.08823832 14383,6917.93,95.439,540.334,539.255,0.0
54807.0,STARLINK-5410,PAYLOAD,2023-03-22 12:35:42,15.08836884,0.0001257,53.2181,211.2599,102.0427,258.0706,-0.00010196,-1.91e-05,0.0,0 STARLINK-5410,1 54807U 22175BB  23081.52479224 -.00001910  00000-0 -10196-3 0  9993,2 54807  53.2181 211.2599 0001257 102.0427 258.0706 15.08836884 14459,6917.89,95.438,540.624,538.885,0.0
54807.0,STARLINK-5410,PAYLOAD,2023-03-22 18:57:13,15.08853841,0.0001211,53.2178,210.071,102.3097,257.8031,6.5374e-05,7.53e-06,0.0,0 STARLINK-5410,1 54807U 22175BB  23081.78973517  .00000753  00000-0  65374-4 0  9996,2 54807  53.2178 210.0710 0001211 102.3097 257.8031 15.08853841 14497,6917.838,95.437,540.541,538.865,0.0
54807.0,STARLINK-5410,PAYLOAD,2023-03-23 01:18:46,15.08837234,0.0001655,53.2198,208.8852,94.3513,265.7668,-5.8634e-05,-1.221e-05,0.0,0 STARLINK-5410,1 54807U 22175BB  23082.05471053 -.00001221  00000-0 -58634-4 0  9999,2 54807  53.2198 208.8852 0001655  94.3513 265.7668 15.08837234 14533,6917.889,95.438,540.899,538.609,0.0
54807.0,STARLINK-5410,PAYLOAD,2023-03-23 14:01:51,15.08874729,0.0001629,53.2191,206.5041,88.3635,271.7544,-0.00056033,-9.203e-05,0.0,0 STARLINK-5410,1 54807U 22175BB  23082.58462633 -.00009203  00000-0 -56033-3 0  9999,2 54807  53.2191 206.5041 0001629  88.3635 271.7544 15.08874729 16778,6917.774,95.435,540.766,538.512,0.0
54807.0,STARLINK-5410,PAYLOAD,2023-03-23 15:37:14,15.08851348,0.0001232,53.218,206.2026,101.0114,259.1017,3.4061e-06,-2.34e-06,0.0,0 STARLINK-5410,1 54807U 22175BB  23082.65086066 -.00000234  00000-0  34061-5 0  9992,2 54807  53.2180 206.2026 0001232 101.0114 259.1017 15.08851348 14620,6917.846,95.437,540.563,538.858,0.0
54807.0,STARLINK-5410,PAYLOAD,2023-03-24 12:17:12,15.08871422,0.0001458,53.2176,202.3453,101.4025,258.7131,0.00030625,4.593e-05,0.0,0 STARLINK-5410,1 54807U 22175BB  23083.51195093  .00004593  00000-0  30625-3 0  9990,2 54807  53.2176 202.3453 0001458 101.4025 258.7131 15.08871422 14752,6917.784,95.436,540.658,538.641,0.0
54807.0,STARLINK-5410,PAYLOAD,2023-03-24 13:52:34,15.08889305,0.0001696,53.2189,202.0431,117.3138,242.8027,0.00026823,3.989e-05,0.0,0 STARLINK-5410,1 54807U 22175BB  23083.57817904  .00003989  00000-0  26823-3 0  9991,2 54807  53.2189 202.0431 0001696 117.3138 242.8027 15.08889305 16922,6917.73,95.434,540.768,538.421,0.0
54807.0,STARLINK-5410,PAYLOAD,2023-03-24 15:27:57,15.08898245,0.0001324,53.2189,201.745,84.5125,275.6019,0.00034198,5.167e-05,0.0,0 STARLINK-5410,1 54807U 22175BB  23083.64441051  .00005167  00000-0  34198-3 0  9999,2 54807  53.2189 201.7450 0001324  84.5125 275.6019 15.08898245 14777,6917.702,95.434,540.483,538.651,0.0
54807.0,STARLINK-5410,PAYLOAD,2023-03-24 20:14:05,15.08900354,0.0001321,53.2188,200.8527,92.5947,267.5197,0.00034349,5.192e-05,0.0,0 STARLINK-5410,1 54807U 22175BB  23083.84312208  .00005192  00000-0  34349-3 0  9998,2 54807  53.2188 200.8527 0001321  92.5947 267.5197 15.08900354 16964,6917.696,95.434,540.475,538.647,0.0
54807.0,STARLINK-5410,PAYLOAD,2023-03-25 01:00:22,15.08797398,5.51e-05,53.2186,199.9624,243.4403,116.6533,-0.0005361,-8.799e-05,0.0,0 STARLINK-5410,1 54807U 22175BB  23084.04192606 -.00008799  00000-0 -53610-3 0  9999,2 54807  53.2186 199.9624 0000551 243.4403 116.6533 15.08797398 14830,6918.011,95.44,540.257,539.494,0.0
54807.0,STARLINK-5410,PAYLOAD,2023-03-25 15:18:51,15.08806694,0.0001048,53.2183,197.285,94.6447,265.4665,-0.0003667,-6.114e-05,0.0,0 STARLINK-5410,1 54807U 22175BB  23084.63810139 -.00006114  00000-0 -36670-3 0  9998,2 54807  53.2183 197.2850 0001048  94.6447 265.4665 15.08806694 14924,6917.982,95.44,540.572,539.122,0.0
54807.0,STARLINK-5410,PAYLOAD,2023-03-26 00:51:10,15.0881681,9.5e-05,53.2186,195.5038,83.8959,276.2141,-0.00024654,-4.207e-05,0.0,0 STARLINK-5410,1 54807U 22175BB  23085.03553625 -.00004207  00000-0 -24654-3 0  9997,2 54807  53.2186 195.5038 0000950  83.8959 276.2141 15.08816810 14981,6917.951,95.439,540.473,539.159,0.0
54807.0,STARLINK-5410,PAYLOAD,2023-03-26 11:58:51,15.0883749,0.0001104,53.2191,193.425,53.7079,306.4015,-0.00029017,-4.902e-05,0.0,0 STARLINK-5410,1 54807U 22175BB  23085.49920900 -.00004902  00000-0 -29017-3 0  9991,2 54807  53.2191 193.4250 0001104  53.7079 306.4015 15.08837490 15053,6917.888,95.438,540.517,538.989,0.0
54807.0,STARLINK-5410,PAYLOAD,2023-03-26 18:20:22,15.08868237,0.0001216,53.2188,192.2268,94.0812,266.0319,-0.00022213,-3.824e-05,0.0,0 STARLINK-5410,1 54807U 22175BB  23085.76414546 -.00003824  00000-0 -22213-3 0  9998,2 54807  53.2188 192.2268 0001216  94.0812 266.0319 15.08868237 15097,6917.794,95.436,540.5,538.818,0.0
54807.0,STARLINK-5410,PAYLOAD,2023-03-27 13:25:01,15.08819492,0.000125,53.2186,188.6634,80.4992,279.6142,0.00039405,5.985e-05,0.0,0 STARLINK-5410,1 54807U 22175BB  23086.55904422  .00005985  00000-0  39405-3 0  9992,2 54807  53.2186 188.6634 0001250  80.4992 279.6142 15.08819492 15214,6917.943,95.439,540.673,538.943,0.0
54807.0,STARLINK-5410,PAYLOAD,2023-03-27 18:11:09,15.08839694,0.0001134,53.2187,187.7698,94.5055,265.6067,0.00044599,6.817e-05,0.0,0 STARLINK-5410,1 54807U 22175BB  23086.75775173  .00006817  00000-0  44599-3 0  9998,2 54807  53.2187 187.7698 0001134  94.5055 265.6067 15.08839694 15242,6917.881,95.438,540.531,538.962,0.0
54807.0,STARLINK-5410,PAYLOAD,2023-03-28 13:15:47,15.0885763,0.0001515,53.2189,184.1988,114.2357,245.8793,4.9053e-05,4.93e-06,0.0,0 STARLINK-5410,1 54807U 22175BB  23087.55263401  .00000493  00000-0  49053-4 0  9998,2 54807  53.2189 184.1988 0001515 114.2357 245.8793 15.08857630 17524,6917.827,95.436,540.74,538.643,0.0
54807.0,STARLINK-5410,PAYLOAD,2023-03-28 18:01:56,15.08863895,0.0001606,53.2192,183.3026,127.9669,232.1468,0.00010761,1.426e-05,0.0,0 STARLINK-5410,1 54807U 22175BB  23087.75134392  .00001426  00000-0  10761-3 0  9996,2 54807  53.2192 183.3026 0001606 127.9669 232.1468 15.08863895 17551,6917.807,95.436,540.783,538.561,0.0
54807.0,STARLINK-5410,PAYLOAD,2023-03-29 05:09:39,15.08837703,0.0001296,53.2183,181.2291,79.8411,280.2728,-6.341e-05,-1.297e-05,0.0,0 STARLINK-5410,1 54807U 22175BB  23088.21504593 -.00001297  00000-0 -63410-4 0  9990,2 54807  53.2183 181.2291 0001296  79.8411 280.2728 15.08837703 15467,6917.887,95.438,540.649,538.856,0.0
54807.0,STARLINK-5410,PAYLOAD,2023-03-29 13:06:34,15.08855891,0.0001314,53.2181,179.7419,89.2105,270.9038,-8.3228e-05,-1.613e-05,0.0,0 STARLINK-5410,1 54807U 22175BB  23088.54623407 -.00001613  00000-0 -83228-4 0  9993,2 54807  53.2181 179.7419 0001314  89.2105 270.9038 15.08855891 15519,6917.832,95.437,540.606,538.788,0.0
54807.0,STARLINK-5410,PAYLOAD,2023-03-29 17:52:42,15.08871908,8.49e-05,53.2176,178.8507,78.9384,281.1704,2.5325e-05,1.16e-06,0.0,0 STARLINK-5410,1 54807U 22175BB  23088.74493555  .00000116  00000-0  25325-4 0  9993,2 54807  53.2176 178.8507 0000849  78.9384 281.1704 15.08871908 15541,6917.783,95.436,540.235,539.061,0.0
54807.0,STARLINK-5410,PAYLOAD,2023-03-29 22:38:55,15.08826701,3.57e-05,53.2179,177.9599,162.8282,197.2722,-0.0003708,-6.182e-05,0.0,0 STARLINK-5410,1 54807U 22175BB  23088.94369218 -.00006182  00000-0 -37080-3 0  9994,2 54807  53.2179 177.9599 0000357 162.8282 197.2722 15.08826701 15570,6917.921,95.438,540.033,539.539,0.0
54807.0,STARLINK-5410,PAYLOAD,2023-03-30 12:57:22,15.08834918,0.0001496,53.2187,175.2847,106.8258,253.2899,-0.00012918,-2.343e-05,0.0,0 STARLINK-5410,1 54807U 22175BB  23089.53984795 -.00002343  00000-0 -12918-3 0  9991,2 54807  53.2187 175.2847 0001496 106.8258 253.2899 15.08834918 15669,6917.896,95.438,540.796,538.726,0.0
